[{"OBJECT_NAME":"STARLINK-3966","OBJECT_ID":"2022-051V","EPOCH":"2026-03-09T08:07:20.180928","MEAN_MOTION":15.08835623,"ECCENTRICITY":0.00012359,"INCLINATION":53.2168,"RA_OF_ASC_NODE":130.8518,"ARG_OF_PERICENTER":101.291,"MEAN_ANOMALY":258.8221,"EPHEMERIS_TYPE":0,"CLASSIFICATION_TYPE":"U","NORAD_CAT_ID":52552,"ELEMENT_SET_NO":999,"REV_AT_EPOCH":21139,"BSTAR":-0.00012890158,"MEAN_MOTION_DOT":-2.338e-5,"MEAN_MOTION_DDOT":0},{"OBJECT_NAME":"YUNYAO-1 47","OBJECT_ID":"2025-059E","EPOCH":"2026-03-09T22:46:15.708288","MEAN_MOTION":15.10508558,"ECCENTRICITY":0.00172664,"INCLINATION":97.6066,"RA_OF_ASC_NODE":250.9227,"ARG_OF_PERICENTER":135.6694,"MEAN_ANOMALY":224.5922,"EPHEMERIS_TYPE":0,"CLASSIFICATION_TYPE":"U","NORAD_CAT_ID":63348,"ELEMENT_SET_NO":999,"REV_AT_EPOCH":5331,"BSTAR":0.00029014568,"MEAN_MOTION_DOT":4.732e-5,"MEAN_MOTION_DDOT":0}]
